ONEWEB-0229             
1 48779U 21045N   25244.57630253  .00000204  00000+0  50702-3 0  9997
2 48779  87.9052 316.7712 0001860  92.4709 267.6635 13.15549735206467
ONEWEB-0228             
1 48780U 21045P   25244.45759920 -.00000131  00000+0 -38272-3 0  9998
2 48780  87.9059 316.7696 0001803  94.6589 265.4747 13.15548833206361
ONEWEB-0232             
1 48781U 21045Q   25244.58423022  .00000086  00000+0  19323-3 0  9997
2 48781  87.9055 316.7374 0001847  96.2996 263.8344 13.15548360206707
ONEWEB-0231             
1 48782U 21045R   25244.56203654  .00000188  00000+0  46596-3 0  9998
2 48782  87.9049 316.7940 0001707  89.5520 270.5806 13.15549596206398
ONEWEB-0234             
1 48783U 21045S   25244.44783465 -.00000060  00000+0 -19385-3 0  9996
2 48783  87.9053 316.7851 0001998 124.0837 236.0483 13.15550625206510
ONEWEB-0238             
1 48784U 21045T   25244.44810063 -.00000017  00000+0 -78570-4 0  9996
2 48784  87.9050 316.7813 0001929 108.8458 251.2881 13.15548659206413
ONEWEB-0240             
1 48785U 21045U   25244.46934295 -.00000106  00000+0 -31511-3 0  9995
2 48785  87.9058 316.7612 0001498  98.8739 261.2561 13.15547328206441
ONEWEB-0246             
1 48786U 21045V   25244.46380191 -.00000078  00000+0 -24219-3 0  9991
2 48786  87.9061 316.7746 0001886  92.7809 267.3538 13.15547992206310
